{
  "type": "FeatureCollection",
  "features": [
    {
      "type": "Feature",
      "properties": {
        "norad_id": 28051,
        "name": "IRS-P6 (RESOURCESAT-1)",
        "group": "resource",
        "lat": 68.5720370956274,
        "lon": 3.791186711914901,
        "alt_km": 784.649679399412,
        "timestamp": "2025-12-10T21:43:21.742940+00:00",
        "meta_object_name": "IRS-P6 (RESOURCESAT-1)",
        "meta_object_id": "2003-046A",
        "meta_epoch": "2025-12-10T13:45:29.626848",
        "meta_mean_motion": 14.36073511,
        "meta_eccentricity": 0.00639645,
        "meta_inclination": 98.2176,
        "meta_ra_of_asc_node": 25.0803,
        "meta_arg_of_pericenter": 187.1911,
        "meta_mean_anomaly": 329.0079,
        "meta_ephemeris_type": 0,
        "meta_classification_type": "U",
        "meta_norad_cat_id": 28051,
        "meta_element_set_no": 999,
        "meta_rev_at_epoch": 15345,
        "meta_bstar": 0.00012381144,
        "meta_mean_motion_dot": 3.28e-06,
        "meta_mean_motion_ddot": 0,
        "tle_line1": "1 28051U 03046A   25344.57325957  .00000328  00000+0  12381-3 0  9990",
        "tle_line2": "2 28051  98.2176  25.0803 0063964 187.1911 329.0079 14.36073511153454"
      },
      "geometry": {
        "type": "Point",
        "coordinates": [
          3.791186711914901,
          68.5720370956274
        ]
      }
    },
    {
      "type": "Feature",
      "properties": {
        "norad_id": 28220,
        "name": "SHIYAN-1 (SY-1)",
        "group": "resource",
        "lat": 56.62114079249537,
        "lon": 34.17843705833849,
        "alt_km": 475.818876143142,
        "timestamp": "2025-12-10T21:43:21.742950+00:00",
        "meta_object_name": "SHIYAN-1 (SY-1)",
        "meta_object_id": "2004-012A",
        "meta_epoch": "2025-12-10T04:11:03.635232",
        "meta_mean_motion": 15.28033489,
        "meta_eccentricity": 0.00057877,
        "meta_inclination": 97.8933,
        "meta_ra_of_asc_node": 45.561,
        "meta_arg_of_pericenter": 335.8258,
        "meta_mean_anomaly": 24.2708,
        "meta_ephemeris_type": 0,
        "meta_classification_type": "U",
        "meta_norad_cat_id": 28220,
        "meta_element_set_no": 999,
        "meta_rev_at_epoch": 18217,
        "meta_bstar": 0.00067493114,
        "meta_mean_motion_dot": 0.00018409,
        "meta_mean_motion_ddot": 0,
        "tle_line1": "1 28220U 04012A   25344.17434763  .00018409  00000+0  67493-3 0  9997",
        "tle_line2": "2 28220  97.8933  45.5610 0005787 335.8258  24.2708 15.28033489182172"
      },
      "geometry": {
        "type": "Point",
        "coordinates": [
          34.17843705833849,
          56.62114079249537
        ]
      }
    },
    {
      "type": "Feature",
      "properties": {
        "norad_id": 28376,
        "name": "AURA",
        "group": "resource",
        "lat": 6.166235557032018,
        "lon": 116.02884283381053,
        "alt_km": 692.1443024436257,
        "timestamp": "2025-12-10T21:43:21.742961+00:00",
        "meta_object_name": "AURA",
        "meta_object_id": "2004-026A",
        "meta_epoch": "2025-12-10T14:21:19.772064",
        "meta_mean_motion": 14.60938926,
        "meta_eccentricity": 0.00011998,
        "meta_inclination": 98.3182,
        "meta_ra_of_asc_node": 294.8148,
        "meta_arg_of_pericenter": 94.0501,
        "meta_mean_anomaly": 266.0836,
        "meta_ephemeris_type": 0,
        "meta_classification_type": "U",
        "meta_norad_cat_id": 28376,
        "meta_element_set_no": 999,
        "meta_rev_at_epoch": 13867,
        "meta_bstar": 0.00037575702,
        "meta_mean_motion_dot": 1.793e-05,
        "meta_mean_motion_ddot": 0,
        "tle_line1": "1 28376U 04026A   25344.59814551  .00001793  00000+0  37576-3 0  9994",
        "tle_line2": "2 28376  98.3182 294.8148 0001199  94.0501 266.0836 14.60938926138678"
      },
      "geometry": {
        "type": "Point",
        "coordinates": [
          116.02884283381053,
          6.166235557032018
        ]
      }
    },
    {
      "type": "Feature",
      "properties": {
        "norad_id": 28649,
        "name": "IRS-P5 (CARTOSAT-1)",
        "group": "resource",
        "lat": -12.486819896183084,
        "lon": -170.2833678933646,
        "alt_km": 602.0183621084407,
        "timestamp": "2025-12-10T21:43:21.742972+00:00",
        "meta_object_name": "IRS-P5 (CARTOSAT-1)",
        "meta_object_id": "2005-017A",
        "meta_epoch": "2025-12-10T11:11:38.274144",
        "meta_mean_motion": 14.90392047,
        "meta_eccentricity": 0.00013581,
        "meta_inclination": 97.5497,
        "meta_ra_of_asc_node": 10.9804,
        "meta_arg_of_pericenter": 46.7941,
        "meta_mean_anomaly": 313.3391,
        "meta_ephemeris_type": 0,
        "meta_classification_type": "U",
        "meta_norad_cat_id": 28649,
        "meta_element_set_no": 999,
        "meta_rev_at_epoch": 11570,
        "meta_bstar": 0.00023500214,
        "meta_mean_motion_dot": 2.236e-05,
        "meta_mean_motion_ddot": 0,
        "tle_line1": "1 28649U 05017A   25344.46641521  .00002236  00000+0  23500-3 0  9994",
        "tle_line2": "2 28649  97.5497  10.9804 0001358  46.7941 313.3391 14.90392047115708"
      },
      "geometry": {
        "type": "Point",
        "coordinates": [
          -170.2833678933646,
          -12.486819896183084
        ]
      }
    },
    {
      "type": "Feature",
      "properties": {
        "norad_id": 28893,
        "name": "SINAH 1",
        "group": "resource",
        "lat": -0.1117576846674237,
        "lon": 113.47365731895822,
        "alt_km": 691.9349203478596,
        "timestamp": "2025-12-10T21:43:21.742983+00:00",
        "meta_object_name": "SINAH 1",
        "meta_object_id": "2005-043D",
        "meta_epoch": "2025-12-10T15:09:42.310080",
        "meta_mean_motion": 14.63958997,
        "meta_eccentricity": 0.00152379,
        "meta_inclination": 98.2602,
        "meta_ra_of_asc_node": 113.1834,
        "meta_arg_of_pericenter": 143.2353,
        "meta_mean_anomaly": 216.9897,
        "meta_ephemeris_type": 0,
        "meta_classification_type": "U",
        "meta_norad_cat_id": 28893,
        "meta_element_set_no": 999,
        "meta_rev_at_epoch": 7293,
        "meta_bstar": 0.00017053486,
        "meta_mean_motion_dot": 8.45e-06,
        "meta_mean_motion_ddot": 0,
        "tle_line1": "1 28893U 05043D   25344.63173970  .00000845  00000+0  17053-3 0  9991",
        "tle_line2": "2 28893  98.2602 113.1834 0015237 143.2353 216.9897 14.63958997 72933"
      },
      "geometry": {
        "type": "Point",
        "coordinates": [
          113.47365731895822,
          -0.1117576846674237
        ]
      }
    },
    {
      "type": "Feature",
      "properties": {
        "norad_id": 29079,
        "name": "EROS B",
        "group": "resource",
        "lat": 43.530254748492325,
        "lon": 94.35058551493886,
        "alt_km": 363.09334368437067,
        "timestamp": "2025-12-10T21:43:21.742994+00:00",
        "meta_object_name": "EROS B",
        "meta_object_id": "2006-014A",
        "meta_epoch": "2025-12-10T13:52:28.755840",
        "meta_mean_motion": 15.6735057,
        "meta_eccentricity": 0.00018301,
        "meta_inclination": 97.3475,
        "meta_ra_of_asc_node": 101.0497,
        "meta_arg_of_pericenter": 292.2182,
        "meta_mean_anomaly": 67.8884,
        "meta_ephemeris_type": 0,
        "meta_classification_type": "U",
        "meta_norad_cat_id": 29079,
        "meta_element_set_no": 999,
        "meta_rev_at_epoch": 9046,
        "meta_bstar": 0.0017723203,
        "meta_mean_motion_dot": 0.00194949,
        "meta_mean_motion_ddot": 0,
        "tle_line1": "1 29079U 06014A   25344.57811060  .00194949  00000+0  17723-2 0  9991",
        "tle_line2": "2 29079  97.3475 101.0497 0001830 292.2182  67.8884 15.67350570 90463"
      },
      "geometry": {
        "type": "Point",
        "coordinates": [
          94.35058551493886,
          43.530254748492325
        ]
      }
    },
    {
      "type": "Feature",
      "properties": {
        "norad_id": 29228,
        "name": "RESURS-DK 1",
        "group": "resource",
        "lat": -35.02803304070217,
        "lon": 91.73417196781324,
        "alt_km": 532.8888275036934,
        "timestamp": "2025-12-10T21:43:21.743004+00:00",
        "meta_object_name": "RESURS-DK 1",
        "meta_object_id": "2006-021A",
        "meta_epoch": "2025-12-10T12:21:47.683008",
        "meta_mean_motion": 15.12141279,
        "meta_eccentricity": 0.00074565,
        "meta_inclination": 69.9336,
        "meta_ra_of_asc_node": 107.5872,
        "meta_arg_of_pericenter": 261.4245,
        "meta_mean_anomaly": 98.6075,
        "meta_ephemeris_type": 0,
        "meta_classification_type": "U",
        "meta_norad_cat_id": 29228,
        "meta_element_set_no": 999,
        "meta_rev_at_epoch": 7404,
        "meta_bstar": 0.00024714404,
        "meta_mean_motion_dot": 4.166e-05,
        "meta_mean_motion_ddot": 0,
        "tle_line1": "1 29228U 06021A   25344.51513522  .00004166  00000+0  24714-3 0  9991",
        "tle_line2": "2 29228  69.9336 107.5872 0007456 261.4245  98.6075 15.12141279 74040"
      },
      "geometry": {
        "type": "Point",
        "coordinates": [
          91.73417196781324,
          -35.02803304070217
        ]
      }
    }
  ]
}